CCSDS_OMM_VERS = 2.0
CREATION_DATE  = 
ORIGINATOR     = 

OBJECT_NAME    = SL-14 R/B
OBJECT_ID      = 1987-055B
CENTER_NAME    = EARTH
REF_FRAME      = TEME
TIME_SYSTEM    = UTC
MEAN_ELEMENT_THEORY = SGP/SGP4

EPOCH          = 2026-01-25T02:23:25.823616
MEAN_MOTION    = 14.85573084
ECCENTRICITY   = .0021313
INCLINATION    = 82.4977
RA_OF_ASC_NODE = 30.1137
ARG_OF_PERICENTER = 153.7437
MEAN_ANOMALY   = 206.4865

EPHEMERIS_TYPE = 0
CLASSIFICATION_TYPE = U
NORAD_CAT_ID   = 18153
ELEMENT_SET_NO = 999
REV_AT_EPOCH   = 6346
BSTAR          = .94264474E-4
MEAN_MOTION_DOT = .842E-5
MEAN_MOTION_DDOT = 0

CCSDS_OMM_VERS = 2.0
CREATION_DATE  = 
ORIGINATOR     = 

OBJECT_NAME    = COSMOS 1867
OBJECT_ID      = 1987-060A
CENTER_NAME    = EARTH
REF_FRAME      = TEME
TIME_SYSTEM    = UTC
MEAN_ELEMENT_THEORY = SGP/SGP4

EPOCH          = 2026-01-25T06:24:04.557024
MEAN_MOTION    = 14.31495265
ECCENTRICITY   = .00139639
INCLINATION    = 65.0103
RA_OF_ASC_NODE = 68.3096
ARG_OF_PERICENTER = 275.2656
MEAN_ANOMALY   = 84.6835

EPHEMERIS_TYPE = 0
CLASSIFICATION_TYPE = U
NORAD_CAT_ID   = 18187
ELEMENT_SET_NO = 999
REV_AT_EPOCH   = 1372
BSTAR          = .47195363E-4
MEAN_MOTION_DOT = .25E-6
MEAN_MOTION_DDOT = 0

CCSDS_OMM_VERS = 2.0
CREATION_DATE  = 
ORIGINATOR     = 

OBJECT_NAME    = SL-14 R/B
OBJECT_ID      = 1988-001B
CENTER_NAME    = EARTH
REF_FRAME      = TEME
TIME_SYSTEM    = UTC
MEAN_ELEMENT_THEORY = SGP/SGP4

EPOCH          = 2026-01-25T07:03:27.762048
MEAN_MOTION    = 14.85475119
ECCENTRICITY   = .00187649
INCLINATION    = 82.5104
RA_OF_ASC_NODE = 236.1808
ARG_OF_PERICENTER = 26.2859
MEAN_ANOMALY   = 333.9305

EPHEMERIS_TYPE = 0
CLASSIFICATION_TYPE = U
NORAD_CAT_ID   = 18749
ELEMENT_SET_NO = 999
REV_AT_EPOCH   = 3558
BSTAR          = .7997887E-4
MEAN_MOTION_DOT = .716E-5
MEAN_MOTION_DDOT = 0

CCSDS_OMM_VERS = 2.0
CREATION_DATE  = 
ORIGINATOR     = 

OBJECT_NAME    = COSMOS 1933
OBJECT_ID      = 1988-020A
CENTER_NAME    = EARTH
REF_FRAME      = TEME
TIME_SYSTEM    = UTC
MEAN_ELEMENT_THEORY = SGP/SGP4

EPOCH          = 2026-01-25T05:05:26.758464
MEAN_MOTION    = 15.17578693
ECCENTRICITY   = .00046131
INCLINATION    = 82.5140
RA_OF_ASC_NODE = 293.9186
ARG_OF_PERICENTER = 15.8096
MEAN_ANOMALY   = 344.3281

EPHEMERIS_TYPE = 0
CLASSIFICATION_TYPE = U
NORAD_CAT_ID   = 18958
ELEMENT_SET_NO = 999
REV_AT_EPOCH   = 4363
BSTAR          = .36391638E-3
MEAN_MOTION_DOT = .734E-4
MEAN_MOTION_DDOT = 0

CCSDS_OMM_VERS = 2.0
CREATION_DATE  = 
ORIGINATOR     = 

OBJECT_NAME    = SL-3 R/B
OBJECT_ID      = 1988-032B
CENTER_NAME    = EARTH
REF_FRAME      = TEME
TIME_SYSTEM    = UTC
MEAN_ELEMENT_THEORY = SGP/SGP4

EPOCH          = 2026-01-25T06:33:04.852512
MEAN_MOTION    = 15.19300004
ECCENTRICITY   = .00273581
INCLINATION    = 97.5135
RA_OF_ASC_NODE = 8.7198
ARG_OF_PERICENTER = 29.2495
MEAN_ANOMALY   = 331.0264

EPHEMERIS_TYPE = 0
CLASSIFICATION_TYPE = U
NORAD_CAT_ID   = 19046
ELEMENT_SET_NO = 999
REV_AT_EPOCH   = 4551
BSTAR          = .41912423E-3
MEAN_MOTION_DOT = .8867E-4
MEAN_MOTION_DDOT = 0

CCSDS_OMM_VERS = 2.0
CREATION_DATE  = 
ORIGINATOR     = 

OBJECT_NAME    = SL-16 R/B
OBJECT_ID      = 1988-039B
CENTER_NAME    = EARTH
REF_FRAME      = TEME
TIME_SYSTEM    = UTC
MEAN_ELEMENT_THEORY = SGP/SGP4

EPOCH          = 2026-01-24T19:12:10.661760
MEAN_MOTION    = 14.19608696
ECCENTRICITY   = .00201946
INCLINATION    = 71.0145
RA_OF_ASC_NODE = 161.3516
ARG_OF_PERICENTER = 42.8978
MEAN_ANOMALY   = 317.3718

EPHEMERIS_TYPE = 0
CLASSIFICATION_TYPE = U
NORAD_CAT_ID   = 19120
ELEMENT_SET_NO = 999
REV_AT_EPOCH   = 95215
BSTAR          = .2586244E-5
MEAN_MOTION_DOT = -.43E-6
MEAN_MOTION_DDOT = 0

CCSDS_OMM_VERS = 2.0
CREATION_DATE  = 
ORIGINATOR     = 

OBJECT_NAME    = COSMOS 1953
OBJECT_ID      = 1988-050A
CENTER_NAME    = EARTH
REF_FRAME      = TEME
TIME_SYSTEM    = UTC
MEAN_ELEMENT_THEORY = SGP/SGP4

EPOCH          = 2026-01-24T18:01:43.894272
MEAN_MOTION    = 15.27578337
ECCENTRICITY   = .00104175
INCLINATION    = 82.5076
RA_OF_ASC_NODE = 202.4016
ARG_OF_PERICENTER = 280.6133
MEAN_ANOMALY   = 79.3933

EPHEMERIS_TYPE = 0
CLASSIFICATION_TYPE = U
NORAD_CAT_ID   = 19210
ELEMENT_SET_NO = 999
REV_AT_EPOCH   = 3107
BSTAR          = .42973043E-3
MEAN_MOTION_DOT = .11639E-3
MEAN_MOTION_DDOT = 0

CCSDS_OMM_VERS = 2.0
CREATION_DATE  = 
ORIGINATOR     = 

OBJECT_NAME    = SL-8 R/B
OBJECT_ID      = 1988-053B
CENTER_NAME    = EARTH
REF_FRAME      = TEME
TIME_SYSTEM    = UTC
MEAN_ELEMENT_THEORY = SGP/SGP4

EPOCH          = 2026-01-25T05:23:30.622272
MEAN_MOTION    = 14.38887567
ECCENTRICITY   = .00197571
INCLINATION    = 74.0460
RA_OF_ASC_NODE = 192.5742
ARG_OF_PERICENTER = 21.1536
MEAN_ANOMALY   = 151.7592

EPHEMERIS_TYPE = 0
CLASSIFICATION_TYPE = U
NORAD_CAT_ID   = 19257
ELEMENT_SET_NO = 999
REV_AT_EPOCH   = 97034
BSTAR          = .14163337E-3
MEAN_MOTION_DOT = .411E-5
MEAN_MOTION_DDOT = 0

CCSDS_OMM_VERS = 2.0
CREATION_DATE  = 
ORIGINATOR     = 

OBJECT_NAME    = COSMOS 1975
OBJECT_ID      = 1988-093A
CENTER_NAME    = EARTH
REF_FRAME      = TEME
TIME_SYSTEM    = UTC
MEAN_ELEMENT_THEORY = SGP/SGP4

EPOCH          = 2026-01-25T02:25:39.738432
MEAN_MOTION    = 15.27223176
ECCENTRICITY   = .00108845
INCLINATION    = 82.5217
RA_OF_ASC_NODE = 161.3977
ARG_OF_PERICENTER = 328.6232
MEAN_ANOMALY   = 31.4356

EPHEMERIS_TYPE = 0
CLASSIFICATION_TYPE = U
NORAD_CAT_ID   = 19573
ELEMENT_SET_NO = 999
REV_AT_EPOCH   = 1275
BSTAR          = .47464121E-3
MEAN_MOTION_DOT = .12719E-3
MEAN_MOTION_DDOT = 0

CCSDS_OMM_VERS = 2.0
CREATION_DATE  = 
ORIGINATOR     = 

OBJECT_NAME    = SL-14 R/B
OBJECT_ID      = 1988-093B
CENTER_NAME    = EARTH
REF_FRAME      = TEME
TIME_SYSTEM    = UTC
MEAN_ELEMENT_THEORY = SGP/SGP4

EPOCH          = 2026-01-25T03:38:14.297568
MEAN_MOTION    = 14.85606721
ECCENTRICITY   = .00207562
INCLINATION    = 82.5295
RA_OF_ASC_NODE = 82.9260
ARG_OF_PERICENTER = 177.9807
MEAN_ANOMALY   = 240.1364

EPHEMERIS_TYPE = 0
CLASSIFICATION_TYPE = U
NORAD_CAT_ID   = 19574
ELEMENT_SET_NO = 999
REV_AT_EPOCH   = 99457
BSTAR          = .89426462E-4
MEAN_MOTION_DOT = .801E-5
MEAN_MOTION_DDOT = 0

CCSDS_OMM_VERS = 2.0
CREATION_DATE  = 
ORIGINATOR     = 

OBJECT_NAME    = SL-16 R/B
OBJECT_ID      = 1988-102B
CENTER_NAME    = EARTH
REF_FRAME      = TEME
TIME_SYSTEM    = UTC
MEAN_ELEMENT_THEORY = SGP/SGP4

EPOCH          = 2026-01-25T00:58:22.886688
MEAN_MOTION    = 14.16148216
ECCENTRICITY   = .001193
INCLINATION    = 70.9976
RA_OF_ASC_NODE = 243.3364
ARG_OF_PERICENTER = 74.6687
MEAN_ANOMALY   = 285.5754

EPHEMERIS_TYPE = 0
CLASSIFICATION_TYPE = U
NORAD_CAT_ID   = 19650
ELEMENT_SET_NO = 999
REV_AT_EPOCH   = 92071
BSTAR          = -.12917633E-4
MEAN_MOTION_DOT = -.73E-6
MEAN_MOTION_DDOT = 0

CCSDS_OMM_VERS = 2.0
CREATION_DATE  = 
ORIGINATOR     = 

OBJECT_NAME    = INTERCOSMOS 24
OBJECT_ID      = 1989-080A
CENTER_NAME    = EARTH
REF_FRAME      = TEME
TIME_SYSTEM    = UTC
MEAN_ELEMENT_THEORY = SGP/SGP4

EPOCH          = 2026-01-25T06:37:33.531456
MEAN_MOTION    = 12.59500394
ECCENTRICITY   = .11887744
INCLINATION    = 82.6079
RA_OF_ASC_NODE = 132.6527
ARG_OF_PERICENTER = 33.5872
MEAN_ANOMALY   = 333.5119

EPHEMERIS_TYPE = 0
CLASSIFICATION_TYPE = U
NORAD_CAT_ID   = 20261
ELEMENT_SET_NO = 999
REV_AT_EPOCH   = 66133
BSTAR          = .20889585E-3
MEAN_MOTION_DOT = .732E-5
MEAN_MOTION_DDOT = 0

CCSDS_OMM_VERS = 2.0
CREATION_DATE  = 
ORIGINATOR     = 

OBJECT_NAME    = SL-14 R/B
OBJECT_ID      = 1989-080C
CENTER_NAME    = EARTH
REF_FRAME      = TEME
TIME_SYSTEM    = UTC
MEAN_ELEMENT_THEORY = SGP/SGP4

EPOCH          = 2026-01-24T22:44:06.408096
MEAN_MOTION    = 12.50445467
ECCENTRICITY   = .12295231
INCLINATION    = 82.5922
RA_OF_ASC_NODE = 201.2720
ARG_OF_PERICENTER = 284.8047
MEAN_ANOMALY   = 62.0232

EPHEMERIS_TYPE = 0
CLASSIFICATION_TYPE = U
NORAD_CAT_ID   = 20262
ELEMENT_SET_NO = 999
REV_AT_EPOCH   = 65468
BSTAR          = .12424226E-3
MEAN_MOTION_DOT = .409E-5
MEAN_MOTION_DDOT = 0

CCSDS_OMM_VERS = 2.0
CREATION_DATE  = 
ORIGINATOR     = 

OBJECT_NAME    = DELTA 1 R/B
OBJECT_ID      = 1989-089B
CENTER_NAME    = EARTH
REF_FRAME      = TEME
TIME_SYSTEM    = UTC
MEAN_ELEMENT_THEORY = SGP/SGP4

EPOCH          = 2026-01-25T07:16:38.419680
MEAN_MOTION    = 14.50620900
ECCENTRICITY   = .00675592
INCLINATION    = 97.0732
RA_OF_ASC_NODE = 239.6332
ARG_OF_PERICENTER = 259.6741
MEAN_ANOMALY   = 99.6836

EPHEMERIS_TYPE = 0
CLASSIFICATION_TYPE = U
NORAD_CAT_ID   = 20323
ELEMENT_SET_NO = 999
REV_AT_EPOCH   = 88944
BSTAR          = .19207527E-3
MEAN_MOTION_DOT = .74E-5
MEAN_MOTION_DDOT = 0

CCSDS_OMM_VERS = 2.0
CREATION_DATE  = 
ORIGINATOR     = 

OBJECT_NAME    = ARIANE 40 R/B
OBJECT_ID      = 1990-005H
CENTER_NAME    = EARTH
REF_FRAME      = TEME
TIME_SYSTEM    = UTC
MEAN_ELEMENT_THEORY = SGP/SGP4

EPOCH          = 2026-01-25T04:08:41.203104
MEAN_MOTION    = 14.39838210
ECCENTRICITY   = .00095587
INCLINATION    = 98.3176
RA_OF_ASC_NODE = 87.1103
ARG_OF_PERICENTER = 342.2932
MEAN_ANOMALY   = 17.7922

EPHEMERIS_TYPE = 0
CLASSIFICATION_TYPE = U
NORAD_CAT_ID   = 20443
ELEMENT_SET_NO = 999
REV_AT_EPOCH   = 88654
BSTAR          = .19889432E-3
MEAN_MOTION_DOT = .582E-5
MEAN_MOTION_DDOT = 0

